AOR-E (EGNOS/PRN 120)   
1 24307U 96053A   16075.37003369 -.00000153  00000-0  00000+0 0  9998
2 24307   1.6982  80.0240 0006617 265.2815 305.7844  1.00271436 71460
ARTEMIS (EGNOS/PRN 124) 
1 26863U 01029A   16075.09387616  .00000088  00000-0  00000+0 0  9991
2 26863  12.2067  37.9840 0004306 307.8508 242.4970  1.00276420 54830
CRE (WAAS/PRN 138)      
1 28868U 05036A   16075.17039100 -.00000104  00000-0  00000+0 0  9991
2 28868   0.0271  75.4324 0002914 292.8824 118.8892  1.00271882 38591
CRW (WAAS/PRN 135)      
1 28884U 05041A   16074.63056572  .00000050  00000-0  00000+0 0  9996
2 28884   0.0260 274.2471 0001460  92.8290 259.5822  1.00272497 38059
IOR-W (EGNOS/PRN 126)   
1 28899U 05044A   16072.36490265 -.00000012  00000-0  00000+0 0  9993
2 28899   2.4859   5.5643 0002811 355.3612   4.7567  1.00272184 37910
MTSAT-2 (MSAS/PRN 137)  
1 28937U 06004A   16075.48981595 -.00000272  00000-0  00000+0 0  9998
2 28937   0.0314 261.4762 0003921 100.7170 132.6560  1.00273364 36792
AMR (WAAS/PRN 133)      
1 33278U 08039A   16075.49248383 -.00000166  00000-0  00000+0 0  9996
2 33278   3.0194 356.9158 0002866 355.6866 260.2128  1.00271890 27705
QZS-1 (QZSS/PRN 183)    
1 37158U 10045A   16074.55737059 -.00000230  00000-0  00000+0 0  9998
2 37158  40.6746 166.0233 0752800 270.1213  73.7002  1.00256990 20140
GSAT-8 (GAGAN/PRN 127)  
1 37605U 11022A   16074.77843561  .00000056  00000-0  00000+0 0  9996
2 37605   0.0205 219.2725 0006665  71.9834 216.8430  1.00273025 17678
LUCH 5A (SDCM/PRN 140)  
1 37951U 11074B   16075.51302807 -.00000077  00000-0  00000+0 0  9997
2 37951   1.8374 220.5147 0003037 144.0344 160.6403  1.00270828 15626
SES-5 (EGNOS/PRN 136)   
1 38652U 12036A   16075.09349501  .00000004  00000-0  00000+0 0  9999
2 38652   0.0490 266.3508 0001955  76.4602 228.9253  1.00272241 13503
GSAT-10 (GAGAN/PRN 128) 
1 38779U 12051B   16074.29071413 -.00000193  00000-0  00000+0 0  9991
2 38779   0.0090 169.3652 0001082 151.5561  39.0471  1.00272341 12728
LUCH 5B (SDCM/PRN 125)  
1 38977U 12061A   16075.16544126 -.00000158  00000-0  00000+0 0  9996
2 38977   2.6290  78.2903 0003537 252.8120 245.3821  1.00270830 12618
ASTRA 5B (EGNOS/PRN 123)
1 39617U 14011B   16074.85352571  .00000125  00000-0  00000+0 0  9994
2 39617   0.0519 322.6321 0002417  20.9735 168.0348  1.00270079  7308
LUCH 5V (SDCM/PRN 141)  
1 39727U 14023A   16074.97317684 -.00000299  00000-0  00000+0 0  9991
2 39727   3.5768 300.1773 0002688  48.3311 269.4544  1.00274705524959
GSAT-15 (GAGAN/PRN 139) 
1 41028U 15065A   16074.79570272 -.00000286  00000-0  00000+0 0  9995
2 41028   0.0214 143.8561 0002204 185.9899 222.9028  1.00271163  1297
